{"type": "FeatureCollection", "features": [ {"type": "Feature", "properties": {"norad_id": 34833, "name": "IRIDIUM 33 DEB", "group": "iridium-33-debris", "lat": -32.17752113434461, "lon": -123.06886929434029, "alt_km": 723.748894654048, "timestamp": "2025-12-04T05:42:43.757411+00:00", "meta": {"OBJECT_NAME": "IRIDIUM 33 DEB", "OBJECT_ID": "1997-051MH", "EPOCH": "2025-12-02T23:15:35.069760", "MEAN_MOTION": 14.52273941, "ECCENTRICITY": 0.00215243, "INCLINATION": 86.3939, "RA_OF_ASC_NODE": 55.2036, "ARG_OF_PERICENTER": 128.6325, "MEAN_ANOMALY": 293.7121, "EPHEMERIS_TYPE": 0, "CLASSIFICATION_TYPE": "U", "NORAD_CAT_ID": 34833, "ELEMENT_SET_NO": 999, "REV_AT_EPOCH": 87573, "BSTAR": 0.0011259064, "MEAN_MOTION_DOT": 4.607e-05, "MEAN_MOTION_DDOT": 0}, "tle": {"line1": "1 34833U 97051MH  25336.96915590  .00004607  00000+0  11259-2 0  9992", "line2": "2 34833  86.3939  55.2036 0021524 128.6325 293.7121 14.52273941875736"}}, "geometry": {"type": "Point", "coordinates": [-123.06886929434029, -32.17752113434461]}}, {"type": "Feature", "properties": {"norad_id": 34870, "name": "IRIDIUM 33 DEB", "group": "iridium-33-debris", "lat": 8.247093755927311, "lon": 137.44176427022134, "alt_km": 635.8956400231455, "timestamp": "2025-12-04T05:42:43.757422+00:00", "meta": {"OBJECT_NAME": "IRIDIUM 33 DEB", "OBJECT_ID": "1997-051MQ", "EPOCH": "2025-12-03T16:42:25.585344", "MEAN_MOTION": 14.7612151, "ECCENTRICITY": 0.00150063, "INCLINATION": 86.3102, "RA_OF_ASC_NODE": 318.2257, "ARG_OF_PERICENTER": 217.2591, "MEAN_ANOMALY": 316.7951, "EPHEMERIS_TYPE": 0, "CLASSIFICATION_TYPE": "U", "NORAD_CAT_ID": 34870, "ELEMENT_SET_NO": 999, "REV_AT_EPOCH": 88777, "BSTAR": 0.002200073, "MEAN_MOTION_DOT": 0.00015256, "MEAN_MOTION_DDOT": 0}, "tle": {"line1": "1 34870U 97051MQ  25337.69612946  .00015256  00000+0  22001-2 0  9992", "line2": "2 34870  86.3102 318.2257 0015006 217.2591 316.7951 14.76121510887778"}}, "geometry": {"type": "Point", "coordinates": [137.44176427022134, 8.247093755927311]}}, {"type": "Feature", "properties": {"norad_id": 34896, "name": "IRIDIUM 33 DEB", "group": "iridium-33-debris", "lat": -38.65498237480416, "lon": -32.444758200578775, "alt_km": 675.5499085280953, "timestamp": "2025-12-04T05:42:43.757432+00:00", "meta": {"OBJECT_NAME": "IRIDIUM 33 DEB", "OBJECT_ID": "1997-051MY", "EPOCH": "2025-12-02T06:27:15.824160", "MEAN_MOTION": 14.66099888, "ECCENTRICITY": 0.0023761, "INCLINATION": 86.3285, "RA_OF_ASC_NODE": 331.3819, "ARG_OF_PERICENTER": 253.426, "MEAN_ANOMALY": 121.6385, "EPHEMERIS_TYPE": 0, "CLASSIFICATION_TYPE": "U", "NORAD_CAT_ID": 34896, "ELEMENT_SET_NO": 999, "REV_AT_EPOCH": 87466, "BSTAR": 0.0012182, "MEAN_MOTION_DOT": 6.738e-05, "MEAN_MOTION_DDOT": 0}, "tle": {"line1": "1 34896U 97051MY  25336.26893315  .00006738  00000+0  12182-2 0  9997", "line2": "2 34896  86.3285 331.3819 0023761 253.4260 121.6385 14.66099888874669"}}, "geometry": {"type": "Point", "coordinates": [-32.444758200578775, -38.65498237480416]}}, {"type": "Feature", "properties": {"norad_id": 34926, "name": "IRIDIUM 33 DEB", "group": "iridium-33-debris", "lat": 57.83317048707744, "lon": 18.38782541577944, "alt_km": 713.4363989587546, "timestamp": "2025-12-04T05:42:43.757443+00:00", "meta": {"OBJECT_NAME": "IRIDIUM 33 DEB", "OBJECT_ID": "1997-051NF", "EPOCH": "2025-12-02T20:58:36.078816", "MEAN_MOTION": 14.53691359, "ECCENTRICITY": 0.00769886, "INCLINATION": 86.1332, "RA_OF_ASC_NODE": 12.8456, "ARG_OF_PERICENTER": 326.4034, "MEAN_ANOMALY": 157.1189, "EPHEMERIS_TYPE": 0, "CLASSIFICATION_TYPE": "U", "NORAD_CAT_ID": 34926, "ELEMENT_SET_NO": 999, "REV_AT_EPOCH": 86313, "BSTAR": 0.0065509461, "MEAN_MOTION_DOT": 0.00028633, "MEAN_MOTION_DDOT": 0}, "tle": {"line1": "1 34926U 97051NF  25336.87402869  .00028633  00000+0  65509-2 0  9997", "line2": "2 34926  86.1332  12.8456 0076988 326.4034 157.1189 14.53691359863134"}}, "geometry": {"type": "Point", "coordinates": [18.38782541577944, 57.83317048707744]}}, {"type": "Feature", "properties": {"norad_id": 34985, "name": "IRIDIUM 33 DEB", "group": "iridium-33-debris", "lat": -13.024672015624045, "lon": -118.65269439972244, "alt_km": 748.8144284769805, "timestamp": "2025-12-04T05:42:43.757453+00:00", "meta": {"OBJECT_NAME": "IRIDIUM 33 DEB", "OBJECT_ID": "1997-051NR", "EPOCH": "2025-12-03T17:45:54.671040", "MEAN_MOTION": 14.41942363, "ECCENTRICITY": 0.0019945, "INCLINATION": 86.3703, "RA_OF_ASC_NODE": 60.7182, "ARG_OF_PERICENTER": 251.1586, "MEAN_ANOMALY": 239.5788, "EPHEMERIS_TYPE": 0, "CLASSIFICATION_TYPE": "U", "NORAD_CAT_ID": 34985, "ELEMENT_SET_NO": 999, "REV_AT_EPOCH": 87045, "BSTAR": 0.0011135704, "MEAN_MOTION_DOT": 3.675e-05, "MEAN_MOTION_DDOT": 0}, "tle": {"line1": "1 34985U 97051NR  25337.74021610  .00003675  00000+0  11136-2 0  9996", "line2": "2 34985  86.3703  60.7182 0019945 251.1586 239.5788 14.41942363870451"}}, "geometry": {"type": "Point", "coordinates": [-118.65269439972244, -13.024672015624045]}}, {"type": "Feature", "properties": {"norad_id": 35051, "name": "IRIDIUM 33 DEB", "group": "iridium-33-debris", "lat": -44.92977853733111, "lon": 8.893227721783644, "alt_km": 747.4407067229376, "timestamp": "2025-12-04T05:42:43.757463+00:00", "meta": {"OBJECT_NAME": "IRIDIUM 33 DEB", "OBJECT_ID": "1997-051NX", "EPOCH": "2025-12-02T20:44:20.358528", "MEAN_MOTION": 14.47524123, "ECCENTRICITY": 0.00104766, "INCLINATION": 86.3255, "RA_OF_ASC_NODE": 13.167, "ARG_OF_PERICENTER": 117.6322, "MEAN_ANOMALY": 242.5946, "EPHEMERIS_TYPE": 0, "CLASSIFICATION_TYPE": "U", "NORAD_CAT_ID": 35051, "ELEMENT_SET_NO": 999, "REV_AT_EPOCH": 86853, "BSTAR": 0.00083073982, "MEAN_MOTION_DOT": 3.075e-05, "MEAN_MOTION_DDOT": 0}, "tle": {"line1": "1 35051U 97051NX  25336.86412452  .00003075  00000+0  83074-3 0  9996", "line2": "2 35051  86.3255  13.1670 0010476 117.6322 242.5946 14.47524123868538"}}, "geometry": {"type": "Point", "coordinates": [8.893227721783644, -44.92977853733111]}}, {"type": "Feature", "properties": {"norad_id": 35052, "name": "IRIDIUM 33 DEB", "group": "iridium-33-debris", "lat": 21.547566960276644, "lon": 25.572386409017287, "alt_km": 762.8442668593252, "timestamp": "2025-12-04T05:42:43.757473+00:00", "meta": {"OBJECT_NAME": "IRIDIUM 33 DEB", "OBJECT_ID": "1997-051NY", "EPOCH": "2025-12-03T09:34:41.243808", "MEAN_MOTION": 14.38474519, "ECCENTRICITY": 0.00135564, "INCLINATION": 86.3319, "RA_OF_ASC_NODE": 24.4803, "ARG_OF_PERICENTER": 111.0544, "MEAN_ANOMALY": 249.2105, "EPHEMERIS_TYPE": 0, "CLASSIFICATION_TYPE": "U", "NORAD_CAT_ID": 35052, "ELEMENT_SET_NO": 999, "REV_AT_EPOCH": 87141, "BSTAR": 0.0002868316, "MEAN_MOTION_DOT": 8.96e-06, "MEAN_MOTION_DDOT": 0}, "tle": {"line1": "1 35052U 97051NY  25337.39908847  .00000896  00000+0  28683-3 0  9997", "line2": "2 35052  86.3319  24.4803 0013556 111.0544 249.2105 14.38474519871414"}}, "geometry": {"type": "Point", "coordinates": [25.572386409017287, 21.547566960276644]}}, {"type": "Feature", "properties": {"norad_id": 35080, "name": "IRIDIUM 33 DEB", "group": "iridium-33-debris", "lat": -28.273902711128876, "lon": -121.52071077475799, "alt_km": 577.2694856591997, "timestamp": "2025-12-04T05:42:43.757483+00:00", "meta": {"OBJECT_NAME": "IRIDIUM 33 DEB", "OBJECT_ID": "1997-051PF", "EPOCH": "2025-12-03T04:30:09.217152", "MEAN_MOTION": 14.84042089, "ECCENTRICITY": 0.00639322, "INCLINATION": 86.2067, "RA_OF_ASC_NODE": 56.9348, "ARG_OF_PERICENTER": 212.1182, "MEAN_ANOMALY": 147.6141, "EPHEMERIS_TYPE": 0, "CLASSIFICATION_TYPE": "U", "NORAD_CAT_ID": 35080, "ELEMENT_SET_NO": 999, "REV_AT_EPOCH": 69546, "BSTAR": 0.011299497, "MEAN_MOTION_DOT": 0.00098836, "MEAN_MOTION_DDOT": 0}, "tle": {"line1": "1 35080U 97051PF  25337.18760668  .00098836  00000+0  11299-1 0  9996", "line2": "2 35080  86.2067  56.9348 0063932 212.1182 147.6141 14.84042089695466"}}, "geometry": {"type": "Point", "coordinates": [-121.52071077475799, -28.273902711128876]}}, {"type": "Feature", "properties": {"norad_id": 35297, "name": "IRIDIUM 33 DEB", "group": "iridium-33-debris", "lat": 84.26307417001772, "lon": 105.37182728201377, "alt_km": 732.4521505569792, "timestamp": "2025-12-04T05:42:43.757493+00:00", "meta": {"OBJECT_NAME": "IRIDIUM 33 DEB", "OBJECT_ID": "1997-051PM", "EPOCH": "2025-11-28T13:02:32.385696", "MEAN_MOTION": 14.4505178, "ECCENTRICITY": 0.00162447, "INCLINATION": 86.3859, "RA_OF_ASC_NODE": 68.817, "ARG_OF_PERICENTER": 185.2069, "MEAN_ANOMALY": 174.8967, "EPHEMERIS_TYPE": 0, "CLASSIFICATION_TYPE": "U", "NORAD_CAT_ID": 35297, "ELEMENT_SET_NO": 999, "REV_AT_EPOCH": 70221, "BSTAR": 0.00072341306, "MEAN_MOTION_DOT": 2.549e-05, "MEAN_MOTION_DDOT": 0}, "tle": {"line1": "1 35297U 97051PM  25332.54343039  .00002549  00000+0  72341-3 0  9993", "line2": "2 35297  86.3859  68.8170 0016244 185.2069 174.8967 14.45051780702214"}}, "geometry": {"type": "Point", "coordinates": [105.37182728201377, 84.26307417001772]}}, {"type": "Feature", "properties": {"norad_id": 35299, "name": "IRIDIUM 33 DEB", "group": "iridium-33-debris", "lat": 29.61642560299001, "lon": -145.2271378256719, "alt_km": 715.3970189949478, "timestamp": "2025-12-04T05:42:43.757503+00:00", "meta": {"OBJECT_NAME": "IRIDIUM 33 DEB", "OBJECT_ID": "1997-051PP", "EPOCH": "2025-12-03T04:09:01.499328", "MEAN_MOTION": 14.4078031, "ECCENTRICITY": 0.0058614, "INCLINATION": 86.2893, "RA_OF_ASC_NODE": 37.3504, "ARG_OF_PERICENTER": 132.8527, "MEAN_ANOMALY": 256.2919, "EPHEMERIS_TYPE": 0, "CLASSIFICATION_TYPE": "U", "NORAD_CAT_ID": 35299, "ELEMENT_SET_NO": 999, "REV_AT_EPOCH": 86193, "BSTAR": 0.0010780004, "MEAN_MOTION_DOT": 3.539e-05, "MEAN_MOTION_DDOT": 0}, "tle": {"line1": "1 35299U 97051PP  25337.17293402  .00003539  00000+0  10780-2 0  9995", "line2": "2 35299  86.2893  37.3504 0058614 132.8527 256.2919 14.40780310861939"}}, "geometry": {"type": "Point", "coordinates": [-145.2271378256719, 29.61642560299001]}}]}